[{"OBJECT_NAME":"STARLINK-3682","OBJECT_ID":"2022-029BE","EPOCH":"2026-03-09T09:13:33.119904","MEAN_MOTION":15.08848073,"ECCENTRICITY":0.00014354,"INCLINATION":53.217,"RA_OF_ASC_NODE":70.4893,"ARG_OF_PERICENTER":76.5583,"MEAN_ANOMALY":283.5569,"EPHEMERIS_TYPE":0,"CLASSIFICATION_TYPE":"U","NORAD_CAT_ID":52140,"ELEMENT_SET_NO":999,"REV_AT_EPOCH":22089,"BSTAR":5.2078287e-5,"MEAN_MOTION_DOT":5.41e-6,"MEAN_MOTION_DDOT":0},{"OBJECT_NAME":"PSLV DEB","OBJECT_ID":"2001-049AH","EPOCH":"2026-03-09T23:39:21.767904","MEAN_MOTION":14.98984537,"ECCENTRICITY":0.00513683,"INCLINATION":98.1237,"RA_OF_ASC_NODE":87.2704,"ARG_OF_PERICENTER":48.4953,"MEAN_ANOMALY":9.0267,"EPHEMERIS_TYPE":0,"CLASSIFICATION_TYPE":"U","NORAD_CAT_ID":27089,"ELEMENT_SET_NO":999,"REV_AT_EPOCH":31452,"BSTAR":0.000212521,"MEAN_MOTION_DOT":2.577e-5,"MEAN_MOTION_DDOT":0}]
